CCSDS_OMM_VERS = 2.0
CREATION_DATE  = 
ORIGINATOR     = 

OBJECT_NAME    = ARIANE 5 R/B
OBJECT_ID      = 2004-049H
CENTER_NAME    = EARTH
REF_FRAME      = TEME
TIME_SYSTEM    = UTC
MEAN_ELEMENT_THEORY = SGP/SGP4

EPOCH          = 2025-11-19T09:44:27.387456
MEAN_MOTION    = 14.84941608
ECCENTRICITY   = .00844419
INCLINATION    = 98.2518
RA_OF_ASC_NODE = 122.8534
ARG_OF_PERICENTER = 349.3516
MEAN_ANOMALY   = 10.5907

EPHEMERIS_TYPE = 0
CLASSIFICATION_TYPE = U
NORAD_CAT_ID   = 28499
ELEMENT_SET_NO = 999
REV_AT_EPOCH   = 12942
BSTAR          = .12473345E-3
MEAN_MOTION_DOT = .1067E-4
MEAN_MOTION_DDOT = 0

CCSDS_OMM_VERS = 2.0
CREATION_DATE  = 
ORIGINATOR     = 

OBJECT_NAME    = CZ-2D R/B
OBJECT_ID      = 2005-024B
CENTER_NAME    = EARTH
REF_FRAME      = TEME
TIME_SYSTEM    = UTC
MEAN_ELEMENT_THEORY = SGP/SGP4

EPOCH          = 2025-11-19T18:35:09.430944
MEAN_MOTION    = 15.51690803
ECCENTRICITY   = .0008107
INCLINATION    = 97.3646
RA_OF_ASC_NODE = 330.6461
ARG_OF_PERICENTER = 71.9095
MEAN_ANOMALY   = 288.3039

EPHEMERIS_TYPE = 0
CLASSIFICATION_TYPE = U
NORAD_CAT_ID   = 28738
ELEMENT_SET_NO = 999
REV_AT_EPOCH   = 12269
BSTAR          = .36993E-3
MEAN_MOTION_DOT = .2197E-3
MEAN_MOTION_DDOT = 0

CCSDS_OMM_VERS = 2.0
CREATION_DATE  = 
ORIGINATOR     = 

OBJECT_NAME    = ALOS (DAICHI)
OBJECT_ID      = 2006-002A
CENTER_NAME    = EARTH
REF_FRAME      = TEME
TIME_SYSTEM    = UTC
MEAN_ELEMENT_THEORY = SGP/SGP4

EPOCH          = 2025-11-19T19:34:40.715328
MEAN_MOTION    = 14.69385069
ECCENTRICITY   = .0000798
INCLINATION    = 98.1055
RA_OF_ASC_NODE = 275.4707
ARG_OF_PERICENTER = 62.3616
MEAN_ANOMALY   = 297.7670

EPHEMERIS_TYPE = 0
CLASSIFICATION_TYPE = U
NORAD_CAT_ID   = 28931
ELEMENT_SET_NO = 999
REV_AT_EPOCH   = 5734
BSTAR          = .30642E-3
MEAN_MOTION_DOT = .1763E-4
MEAN_MOTION_DDOT = 0

CCSDS_OMM_VERS = 2.0
CREATION_DATE  = 
ORIGINATOR     = 

OBJECT_NAME    = H-2A R/B
OBJECT_ID      = 2006-002B
CENTER_NAME    = EARTH
REF_FRAME      = TEME
TIME_SYSTEM    = UTC
MEAN_ELEMENT_THEORY = SGP/SGP4

EPOCH          = 2025-11-19T18:56:02.715648
MEAN_MOTION    = 15.13935719
ECCENTRICITY   = .0054518
INCLINATION    = 98.2307
RA_OF_ASC_NODE = 96.6773
ARG_OF_PERICENTER = 254.8824
MEAN_ANOMALY   = 104.6371

EPHEMERIS_TYPE = 0
CLASSIFICATION_TYPE = U
NORAD_CAT_ID   = 28932
ELEMENT_SET_NO = 999
REV_AT_EPOCH   = 7779
BSTAR          = .53324E-3
MEAN_MOTION_DOT = .9951E-4
MEAN_MOTION_DDOT = 0

CCSDS_OMM_VERS = 2.0
CREATION_DATE  = 
ORIGINATOR     = 

OBJECT_NAME    = RESURS-DK 1
OBJECT_ID      = 2006-021A
CENTER_NAME    = EARTH
REF_FRAME      = TEME
TIME_SYSTEM    = UTC
MEAN_ELEMENT_THEORY = SGP/SGP4

EPOCH          = 2025-11-19T19:24:46.437120
MEAN_MOTION    = 15.11973718
ECCENTRICITY   = .000719
INCLINATION    = 69.9305
RA_OF_ASC_NODE = 161.0898
ARG_OF_PERICENTER = 278.0487
MEAN_ANOMALY   = 81.9862

EPHEMERIS_TYPE = 0
CLASSIFICATION_TYPE = U
NORAD_CAT_ID   = 29228
ELEMENT_SET_NO = 999
REV_AT_EPOCH   = 7091
BSTAR          = .15378E-3
MEAN_MOTION_DOT = .2539E-4
MEAN_MOTION_DDOT = 0

CCSDS_OMM_VERS = 2.0
CREATION_DATE  = 
ORIGINATOR     = 

OBJECT_NAME    = CZ-4B R/B
OBJECT_ID      = 2006-046C
CENTER_NAME    = EARTH
REF_FRAME      = TEME
TIME_SYSTEM    = UTC
MEAN_ELEMENT_THEORY = SGP/SGP4

EPOCH          = 2025-11-19T09:34:07.084704
MEAN_MOTION    = 15.15547006
ECCENTRICITY   = .00327958
INCLINATION    = 97.5771
RA_OF_ASC_NODE = 3.6020
ARG_OF_PERICENTER = 290.4897
MEAN_ANOMALY   = 69.2815

EPHEMERIS_TYPE = 0
CLASSIFICATION_TYPE = U
NORAD_CAT_ID   = 29507
ELEMENT_SET_NO = 999
REV_AT_EPOCH   = 4333
BSTAR          = .30422692E-3
MEAN_MOTION_DOT = .5777E-4
MEAN_MOTION_DDOT = 0

CCSDS_OMM_VERS = 2.0
CREATION_DATE  = 
ORIGINATOR     = 

OBJECT_NAME    = CZ-2C R/B
OBJECT_ID      = 2007-010B
CENTER_NAME    = EARTH
REF_FRAME      = TEME
TIME_SYSTEM    = UTC
MEAN_ELEMENT_THEORY = SGP/SGP4

EPOCH          = 2025-11-19T18:01:31.914048
MEAN_MOTION    = 14.20195988
ECCENTRICITY   = .0057959
INCLINATION    = 98.3968
RA_OF_ASC_NODE = 77.5601
ARG_OF_PERICENTER = 253.5106
MEAN_ANOMALY   = 105.9698

EPHEMERIS_TYPE = 0
CLASSIFICATION_TYPE = U
NORAD_CAT_ID   = 31114
ELEMENT_SET_NO = 999
REV_AT_EPOCH   = 96411
BSTAR          = .97661E-4
MEAN_MOTION_DOT = .17E-5
MEAN_MOTION_DDOT = 0

CCSDS_OMM_VERS = 2.0
CREATION_DATE  = 
ORIGINATOR     = 

OBJECT_NAME    = COSMO-SKYMED 1
OBJECT_ID      = 2007-023A
CENTER_NAME    = EARTH
REF_FRAME      = TEME
TIME_SYSTEM    = UTC
MEAN_ELEMENT_THEORY = SGP/SGP4

EPOCH          = 2025-11-19T20:10:32.719872
MEAN_MOTION    = 14.95528390
ECCENTRICITY   = .0001028
INCLINATION    = 97.8838
RA_OF_ASC_NODE = 149.0933
ARG_OF_PERICENTER = 83.0588
MEAN_ANOMALY   = 277.0749

EPHEMERIS_TYPE = 0
CLASSIFICATION_TYPE = U
NORAD_CAT_ID   = 31598
ELEMENT_SET_NO = 999
REV_AT_EPOCH   = 99847
BSTAR          = .4172E-3
MEAN_MOTION_DOT = .4565E-4
MEAN_MOTION_DDOT = 0

CCSDS_OMM_VERS = 2.0
CREATION_DATE  = 
ORIGINATOR     = 

OBJECT_NAME    = COSMOS 2428
OBJECT_ID      = 2007-029A
CENTER_NAME    = EARTH
REF_FRAME      = TEME
TIME_SYSTEM    = UTC
MEAN_ELEMENT_THEORY = SGP/SGP4

EPOCH          = 2025-11-19T17:29:47.971680
MEAN_MOTION    = 14.12887621
ECCENTRICITY   = .0002452
INCLINATION    = 70.9370
RA_OF_ASC_NODE = 74.1893
ARG_OF_PERICENTER = 62.5033
MEAN_ANOMALY   = 297.6337

EPHEMERIS_TYPE = 0
CLASSIFICATION_TYPE = U
NORAD_CAT_ID   = 31792
ELEMENT_SET_NO = 999
REV_AT_EPOCH   = 94856
BSTAR          = -.68863E-4
MEAN_MOTION_DOT = -.176E-5
MEAN_MOTION_DDOT = 0

CCSDS_OMM_VERS = 2.0
CREATION_DATE  = 
ORIGINATOR     = 

OBJECT_NAME    = SL-16 R/B
OBJECT_ID      = 2007-029B
CENTER_NAME    = EARTH
REF_FRAME      = TEME
TIME_SYSTEM    = UTC
MEAN_ELEMENT_THEORY = SGP/SGP4

EPOCH          = 2025-11-19T15:22:47.940096
MEAN_MOTION    = 14.14814931
ECCENTRICITY   = .0002218
INCLINATION    = 70.9777
RA_OF_ASC_NODE = 43.7115
ARG_OF_PERICENTER = 262.8414
MEAN_ANOMALY   = 247.3151

EPHEMERIS_TYPE = 0
CLASSIFICATION_TYPE = U
NORAD_CAT_ID   = 31793
ELEMENT_SET_NO = 999
REV_AT_EPOCH   = 94980
BSTAR          = .14994E-3
MEAN_MOTION_DOT = .241E-5
MEAN_MOTION_DDOT = 0

CCSDS_OMM_VERS = 2.0
CREATION_DATE  = 
ORIGINATOR     = 

OBJECT_NAME    = KORONAS-FOTON
OBJECT_ID      = 2009-003A
CENTER_NAME    = EARTH
REF_FRAME      = TEME
TIME_SYSTEM    = UTC
MEAN_ELEMENT_THEORY = SGP/SGP4

EPOCH          = 2025-11-19T15:14:06.459072
MEAN_MOTION    = 15.40487068
ECCENTRICITY   = .0011556
INCLINATION    = 82.4334
RA_OF_ASC_NODE = 30.0304
ARG_OF_PERICENTER = 186.1906
MEAN_ANOMALY   = 173.9199

EPHEMERIS_TYPE = 0
CLASSIFICATION_TYPE = U
NORAD_CAT_ID   = 33504
ELEMENT_SET_NO = 999
REV_AT_EPOCH   = 92878
BSTAR          = .27107E-3
MEAN_MOTION_DOT = .1105E-3
MEAN_MOTION_DDOT = 0

CCSDS_OMM_VERS = 2.0
CREATION_DATE  = 
ORIGINATOR     = 

OBJECT_NAME    = CZ-2C R/B
OBJECT_ID      = 2011-030B
CENTER_NAME    = EARTH
REF_FRAME      = TEME
TIME_SYSTEM    = UTC
MEAN_ELEMENT_THEORY = SGP/SGP4

EPOCH          = 2025-11-19T19:35:46.883040
MEAN_MOTION    = 14.80786879
ECCENTRICITY   = .005283
INCLINATION    = 97.8375
RA_OF_ASC_NODE = 278.4370
ARG_OF_PERICENTER = 349.6962
MEAN_ANOMALY   = 39.5464

EPHEMERIS_TYPE = 0
CLASSIFICATION_TYPE = U
NORAD_CAT_ID   = 37731
ELEMENT_SET_NO = 999
REV_AT_EPOCH   = 77383
BSTAR          = .25812E-3
MEAN_MOTION_DOT = .1983E-4
MEAN_MOTION_DDOT = 0

