ARIANE 5 R/B            
1 28499U 04049H   25323.40587254  .00001067  00000+0  12473-3 0  9992
2 28499  98.2518 122.8534 0084441 349.3516  10.5907 14.84941608129429
CZ-2D R/B               
1 28738U 05024B   25323.77441471  .00021970  00000+0  36993-3 0  9990
2 28738  97.3646 330.6461 0008107  71.9095 288.3039 15.51690803122696
ALOS (DAICHI)           
1 28931U 06002A   25323.81574902  .00001763  00000+0  30642-3 0  9996
2 28931  98.1055 275.4707 0000798  62.3616 297.7670 14.69385069 57341
H-2A R/B                
1 28932U 06002B   25323.78892032  .00009951  00000+0  53324-3 0  9999
2 28932  98.2307  96.6773 0054518 254.8824 104.6371 15.13935719 77795
RESURS-DK 1             
1 29228U 06021A   25323.80887080  .00002539  00000+0  15378-3 0  9991
2 29228  69.9305 161.0898 0007190 278.0487  81.9862 15.11973718 70917
CZ-4B R/B               
1 29507U 06046C   25323.39869311  .00005777  00000+0  30423-3 0  9994
2 29507  97.5771   3.6020 0032795 290.4897  69.2815 15.15547006 43335
CZ-2C R/B               
1 31114U 07010B   25323.75106382  .00000170  00000+0  97661-4 0  9995
2 31114  98.3968  77.5601 0057959 253.5106 105.9698 14.20195988964114
COSMO-SKYMED 1          
1 31598U 07023A   25323.84065648  .00004565  00000+0  41720-3 0  9990
2 31598  97.8838 149.0933 0001028  83.0588 277.0749 14.95528390998472
COSMOS 2428             
1 31792U 07029A   25323.72902745 -.00000176  00000+0 -68863-4 0  9991
2 31792  70.9370  74.1893 0002452  62.5033 297.6337 14.12887621948563
SL-16 R/B               
1 31793U 07029B   25323.64083264  .00000241  00000+0  14994-3 0  9995
2 31793  70.9777  43.7115 0002218 262.8414 247.3151 14.14814931949802
KORONAS-FOTON           
1 33504U 09003A   25323.63479698  .00011050  00000+0  27107-3 0  9990
2 33504  82.4334  30.0304 0011556 186.1906 173.9199 15.40487068928786
CZ-2C R/B               
1 37731U 11030B   25323.81651485  .00001983  00000+0  25812-3 0  9990
2 37731  97.8375 278.4370 0052830 349.6962  39.5464 14.80786879773837
